{
  "norad_id": 59531,
  "name": "STARLINK-31619",
  "history": [
    {
      "epoch": "2026-03-28T19:47:00.339072Z",
      "apogee_km": 483.8342002652071,
      "perigee_km": 482.1912293544983,
      "latitude_deg": -7.724716475122452e-06,
      "longitude_deg": 86.82406656662009,
      "height_km": 482.7026571078817,
      "semi_major_axis_km": 6861.149714809852,
      "eccentricity": 0.00011973,
      "inclination_deg": 42.9981,
      "raan_deg": 209.8147,
      "arg_perigee_deg": 276.0361,
      "mean_anomaly_deg": 84.0354,
      "mean_motion_rev_day": 15.2759215
    },
    {
      "epoch": "2026-03-29T00:29:29.634432Z",
      "apogee_km": 483.3996293154478,
      "perigee_km": 482.8027015950529,
      "latitude_deg": 3.4250131579528935e-05,
      "longitude_deg": 14.899090935185189,
      "height_km": 482.5781182758645,
      "semi_major_axis_km": 6861.23816545525,
      "eccentricity": 4.35e-05,
      "inclination_deg": 42.9977,
      "raan_deg": 208.7051,
      "arg_perigee_deg": 2.3136,
      "mean_anomaly_deg": 357.7718,
      "mean_motion_rev_day": 15.27562611
    },
    {
      "epoch": "2026-03-30T00:01:49.944000Z",
      "apogee_km": 483.5182369195354,
      "perigee_km": 482.5892316941099,
      "latitude_deg": 1.6163607597713578e-05,
      "longitude_deg": 15.309537596135781,
      "height_km": 482.8942063899997,
      "semi_major_axis_km": 6861.190734306822,
      "eccentricity": 6.77e-05,
      "inclination_deg": 42.9989,
      "raan_deg": 203.1669,
      "arg_perigee_deg": 262.0127,
      "mean_anomaly_deg": 98.0648,
      "mean_motion_rev_day": 15.27578451
    },
    {
      "epoch": "2026-03-30T09:26:46.646880Z",
      "apogee_km": 483.53283222814116,
      "perigee_km": 482.6161743713001,
      "latitude_deg": 3.0146250394064226e-05,
      "longitude_deg": -128.52810018317854,
      "height_km": 482.94110135089164,
      "semi_major_axis_km": 6861.211503299721,
      "eccentricity": 6.68e-05,
      "inclination_deg": 42.999,
      "raan_deg": 200.9522,
      "arg_perigee_deg": 258.589,
      "mean_anomaly_deg": 101.4887,
      "mean_motion_rev_day": 15.27571515
    },
    {
      "epoch": "2026-03-30T17:17:33.108576Z",
      "apogee_km": 483.93420731056176,
      "perigee_km": 482.13342441822897,
      "latitude_deg": -4.195700796368114e-05,
      "longitude_deg": 111.60849929937562,
      "height_km": 482.874192101353,
      "semi_major_axis_km": 6861.170815864395,
      "eccentricity": 0.00013123,
      "inclination_deg": 43.0002,
      "raan_deg": 199.1047,
      "arg_perigee_deg": 265.941,
      "mean_anomaly_deg": 94.1291,
      "mean_motion_rev_day": 15.27585103
    },
    {
      "epoch": "2026-03-31T15:15:44.325216Z",
      "apogee_km": 483.8846891156354,
      "perigee_km": 482.1529333888757,
      "latitude_deg": 3.547089694578702e-05,
      "longitude_deg": 135.99028018781115,
      "height_km": 482.8685482707251,
      "semi_major_axis_km": 6861.155811252255,
      "eccentricity": 0.0001262,
      "inclination_deg": 42.9977,
      "raan_deg": 193.9354,
      "arg_perigee_deg": 265.1355,
      "mean_anomaly_deg": 94.9353,
      "mean_motion_rev_day": 15.27590114
    },
    {
      "epoch": "2026-04-01T13:13:56.524224Z",
      "apogee_km": 484.19546864273434,
      "perigee_km": 481.9573408301094,
      "latitude_deg": 3.943097683712055e-06,
      "longitude_deg": 160.36624044405292,
      "height_km": 482.67777561351573,
      "semi_major_axis_km": 6861.213404736422,
      "eccentricity": 0.0001631,
      "inclination_deg": 42.9984,
      "raan_deg": 188.7645,
      "arg_perigee_deg": 279.015,
      "mean_anomaly_deg": 81.0517,
      "mean_motion_rev_day": 15.2757088
    },
    {
      "epoch": "2026-04-02T14:20:25.320192Z",
      "apogee_km": 484.0083897550703,
      "perigee_km": 481.88954918597847,
      "latitude_deg": 1.8721967216776122e-05,
      "longitude_deg": 136.80782510144223,
      "height_km": 482.60856941101576,
      "semi_major_axis_km": 6861.085969470524,
      "eccentricity": 0.00015441,
      "inclination_deg": 42.9998,
      "raan_deg": 182.8572,
      "arg_perigee_deg": 276.3515,
      "mean_anomaly_deg": 83.7161,
      "mean_motion_rev_day": 15.27613439
    },
    {
      "epoch": "2026-04-02T22:11:12.283008Z",
      "apogee_km": 483.79678891896583,
      "perigee_km": 482.12954157880904,
      "latitude_deg": -2.355774442824876e-05,
      "longitude_deg": 16.943862522698407,
      "height_km": 482.59853399644055,
      "semi_major_axis_km": 6861.100165248887,
      "eccentricity": 0.0001215,
      "inclination_deg": 42.9991,
      "raan_deg": 181.0112,
      "arg_perigee_deg": 279.7436,
      "mean_anomaly_deg": 80.3278,
      "mean_motion_rev_day": 15.27608698
    },
    {
      "epoch": "2026-04-03T13:52:47.445888Z",
      "apogee_km": 484.14305568567124,
      "perigee_km": 482.19444485259373,
      "latitude_deg": 3.329148146510322e-05,
      "longitude_deg": 137.21061841105058,
      "height_km": 482.7127468989414,
      "semi_major_axis_km": 6861.305750269132,
      "eccentricity": 0.000142,
      "inclination_deg": 42.9995,
      "raan_deg": 177.3189,
      "arg_perigee_deg": 283.8158,
      "mean_anomaly_deg": 76.2536,
      "mean_motion_rev_day": 15.27540041
    },
    {
      "epoch": "2026-04-04T13:25:09.053184Z",
      "apogee_km": 484.0653464842999,
      "perigee_km": 482.0687361082828,
      "latitude_deg": 1.7367966093870018e-05,
      "longitude_deg": 137.61284431503668,
      "height_km": 482.62726826729295,
      "semi_major_axis_km": 6861.2040412962915,
      "eccentricity": 0.0001455,
      "inclination_deg": 42.9979,
      "raan_deg": 171.7779,
      "arg_perigee_deg": 282.5126,
      "mean_anomaly_deg": 77.5563,
      "mean_motion_rev_day": 15.27574007
    },
    {
      "epoch": "2026-04-05T14:31:40.284768Z",
      "apogee_km": 483.91963813870916,
      "perigee_km": 482.22354737457954,
      "latitude_deg": -2.943596887634998e-06,
      "longitude_deg": 114.0455128901975,
      "height_km": 482.81545896453395,
      "semi_major_axis_km": 6861.208592756644,
      "eccentricity": 0.0001236,
      "inclination_deg": 42.9992,
      "raan_deg": 165.8719,
      "arg_perigee_deg": 272.204,
      "mean_anomaly_deg": 87.867,
      "mean_motion_rev_day": 15.27572487
    },
    {
      "epoch": "2026-04-05T14:31:40.285632Z",
      "apogee_km": 483.9194293076962,
      "perigee_km": 482.22375021682274,
      "latitude_deg": -5.310238130600323e-06,
      "longitude_deg": 114.04550675639739,
      "height_km": 482.81546388583246,
      "semi_major_axis_km": 6861.208589762259,
      "eccentricity": 0.00012357,
      "inclination_deg": 42.9992,
      "raan_deg": 165.8719,
      "arg_perigee_deg": 272.204,
      "mean_anomaly_deg": 87.867,
      "mean_motion_rev_day": 15.27572488
    },
    {
      "epoch": "2026-04-06T06:13:13.528704Z",
      "apogee_km": 483.99762886373173,
      "perigee_km": 481.95974028309865,
      "latitude_deg": -5.850962687748579e-05,
      "longitude_deg": -125.68003497687617,
      "height_km": 482.62194558830896,
      "semi_major_axis_km": 6861.115684573415,
      "eccentricity": 0.00014851,
      "inclination_deg": 42.9993,
      "raan_deg": 162.1794,
      "arg_perigee_deg": 277.5253,
      "mean_anomaly_deg": 82.5429,
      "mean_motion_rev_day": 15.27603515
    },
    {
      "epoch": "2026-04-07T13:36:20.129760Z",
      "apogee_km": 484.06894937575726,
      "perigee_km": 481.9255310391163,
      "latitude_deg": -3.138229422775077e-05,
      "longitude_deg": 114.86964304825467,
      "height_km": 482.4403402449202,
      "semi_major_axis_km": 6861.134240207437,
      "eccentricity": 0.0001562,
      "inclination_deg": 43.0006,
      "raan_deg": 154.7955,
      "arg_perigee_deg": 288.1468,
      "mean_anomaly_deg": 71.9213,
      "mean_motion_rev_day": 15.27597318
    },
    {
      "epoch": "2026-04-07T13:36:20.130624Z",
      "apogee_km": 484.06881215307294,
      "perigee_km": 481.92566826180155,
      "latitude_deg": -3.2862515842553065e-05,
      "longitude_deg": 114.86963785983986,
      "height_km": 482.44038297580784,
      "semi_major_axis_km": 6861.134240207437,
      "eccentricity": 0.00015618,
      "inclination_deg": 43.0006,
      "raan_deg": 154.7955,
      "arg_perigee_deg": 288.1468,
      "mean_anomaly_deg": 71.9213,
      "mean_motion_rev_day": 15.27597318
    },
    {
      "epoch": "2026-04-08T10:00:22.203360Z",
      "apogee_km": 483.9827943941136,
      "perigee_km": 482.10379155907776,
      "latitude_deg": -2.4129257625776854e-05,
      "longitude_deg": 163.21968633872663,
      "height_km": 482.61651016254837,
      "semi_major_axis_km": 6861.180292976595,
      "eccentricity": 0.00013693,
      "inclination_deg": 42.9991,
      "raan_deg": 149.992,
      "arg_perigee_deg": 282.5011,
      "mean_anomaly_deg": 77.5687,
      "mean_motion_rev_day": 15.27581938
    },
    {
      "epoch": "2026-04-09T20:31:48.529056Z",
      "apogee_km": 484.0911596857859,
      "perigee_km": 481.9834069459521,
      "latitude_deg": 2.5340558985073437e-05,
      "longitude_deg": -4.182505042244409,
      "height_km": 482.6167391604875,
      "semi_major_axis_km": 6861.174283315869,
      "eccentricity": 0.0001536,
      "inclination_deg": 42.9985,
      "raan_deg": 141.8673,
      "arg_perigee_deg": 280.7843,
      "mean_anomaly_deg": 79.2836,
      "mean_motion_rev_day": 15.27583945
    },
    {
      "epoch": "2026-04-10T04:22:35.503968Z",
      "apogee_km": 483.90373749751143,
      "perigee_km": 482.18377670532027,
      "latitude_deg": -2.4945092984799785e-06,
      "longitude_deg": -124.0497038392475,
      "height_km": 482.92642855091026,
      "semi_major_axis_km": 6861.180757101415,
      "eccentricity": 0.00012534,
      "inclination_deg": 42.9964,
      "raan_deg": 140.0181,
      "arg_perigee_deg": 262.8851,
      "mean_anomaly_deg": 97.1858,
      "mean_motion_rev_day": 15.27581783
    }
  ]
}